[{"OBJECT_NAME":"STARLINK-32559","OBJECT_ID":"2024-207D","EPOCH":"2026-03-09T22:38:56.289984","MEAN_MOTION":15.27608664,"ECCENTRICITY":0.00021124,"INCLINATION":42.9974,"RA_OF_ASC_NODE":280.0749,"ARG_OF_PERICENTER":40.4173,"MEAN_ANOMALY":319.6835,"EPHEMERIS_TYPE":0,"CLASSIFICATION_TYPE":"U","NORAD_CAT_ID":61915,"ELEMENT_SET_NO":999,"REV_AT_EPOCH":7476,"BSTAR":0.00090887555,"MEAN_MOTION_DOT":0.00024855,"MEAN_MOTION_DDOT":0},{"OBJECT_NAME":"OBJECT G","OBJECT_ID":"2026-023G","EPOCH":"2026-03-09T17:12:13.064832","MEAN_MOTION":15.23234695,"ECCENTRICITY":0.00237819,"INCLINATION":96.6246,"RA_OF_ASC_NODE":144.1318,"ARG_OF_PERICENTER":118.2502,"MEAN_ANOMALY":242.1141,"EPHEMERIS_TYPE":0,"CLASSIFICATION_TYPE":"U","NORAD_CAT_ID":67680,"ELEMENT_SET_NO":999,"REV_AT_EPOCH":484,"BSTAR":0.00060026958,"MEAN_MOTION_DOT":0.00014279,"MEAN_MOTION_DDOT":0}]
